{
    "links": {
        "self": "http://www.neowsapp.com/rest/v1/neo/3743747?api_key=iIulBulltgU6a56xZRHN4H3l9WmuAYTsLGpBGhQ2"
    },
    "id": "3743747",
    "neo_reference_id": "3743747",
    "name": "(2016 CS195)",
    "designation": "2016 CS195",
    "nasa_jpl_url": "http://ssd.jpl.nasa.gov/sbdb.cgi?sstr=3743747",
    "absolute_magnitude_h": 21.7,
    "estimated_diameter": {
        "kilometers": {
            "estimated_diameter_min": 0.1214940408,
            "estimated_diameter_max": 0.2716689341
        },
        "meters": {
            "estimated_diameter_min": 121.4940407996,
            "estimated_diameter_max": 271.6689340891
        },
        "miles": {
            "estimated_diameter_min": 0.0754928736,
            "estimated_diameter_max": 0.1688071972
        },
        "feet": {
            "estimated_diameter_min": 398.6025088171,
            "estimated_diameter_max": 891.3023057169
        }
    },
    "is_potentially_hazardous_asteroid": false,
    "close_approach_data": [
        {
            "close_approach_date": "2007-09-27",
            "close_approach_date_full": "2007-Sep-27 09:48",
            "epoch_date_close_approach": 1190886480000,
            "relative_velocity": {
                "kilometers_per_second": "10.4181131196",
                "kilometers_per_hour": "37505.2072304437",
                "miles_per_hour": "23304.277237161"
            },
            "miss_distance": {
                "astronomical": "0.4986324958",
                "lunar": "193.9680408662",
                "kilometers": "74594359.284463946",
                "miles": "46350785.5448806148"
            },
            "orbiting_body": "Earth"
        },
        {
            "close_approach_date": "2009-10-14",
            "close_approach_date_full": "2009-Oct-14 06:06",
            "epoch_date_close_approach": 1255500360000,
            "relative_velocity": {
                "kilometers_per_second": "9.1590096468",
                "kilometers_per_hour": "32972.434728463",
                "miles_per_hour": "20487.7886789164"
            },
            "miss_distance": {
                "astronomical": "0.4830150078",
                "lunar": "187.8928380342",
                "kilometers": "72258016.344913386",
                "miles": "44899049.3601452868"
            },
            "orbiting_body": "Earth"
        },
        {
            "close_approach_date": "2014-01-28",
            "close_approach_date_full": "2014-Jan-28 10:31",
            "epoch_date_close_approach": 1390905060000,
            "relative_velocity": {
                "kilometers_per_second": "9.7569984416",
                "kilometers_per_hour": "35125.194389691",
                "miles_per_hour": "21825.4298139722"
            },
            "miss_distance": {
                "astronomical": "0.4318812862",
                "lunar": "168.0018203318",
                "kilometers": "64608520.508380394",
                "miles": "40145873.0550376772"
            },
            "orbiting_body": "Earth"
        },
        {
            "close_approach_date": "2016-02-14",
            "close_approach_date_full": "2016-Feb-14 08:36",
            "epoch_date_close_approach": 1455438960000,
            "relative_velocity": {
                "kilometers_per_second": "10.5602958247",
                "kilometers_per_hour": "38017.0649689808",
                "miles_per_hour": "23622.3257303092"
            },
            "miss_distance": {
                "astronomical": "0.425241275",
                "lunar": "165.418855975",
                "kilometers": "63615188.97608425",
                "miles": "39528645.46209265"
            },
            "orbiting_body": "Earth"
        },
        {
            "close_approach_date": "2018-02-28",
            "close_approach_date_full": "2018-Feb-28 01:59",
            "epoch_date_close_approach": 1519783140000,
            "relative_velocity": {
                "kilometers_per_second": "10.9583396803",
                "kilometers_per_hour": "39450.0228491473",
                "miles_per_hour": "24512.7100309049"
            },
            "miss_distance": {
                "astronomical": "0.4933163051",
                "lunar": "191.9000426839",
                "kilometers": "73799068.479230137",
                "miles": "45856614.7535124106"
            },
            "orbiting_body": "Earth"
        }
    ],
    "orbital_data": {
        "orbit_id": "8",
        "orbit_determination_date": "2017-04-06 08:28:18",
        "first_observation_date": "2016-02-10",
        "last_observation_date": "2016-03-07",
        "data_arc_in_days": 26,
        "observations_used": 23,
        "orbit_uncertainty": "6",
        "minimum_orbit_intersection": ".417102",
        "jupiter_tisserand_invariant": "4.343",
        "epoch_osculation": "2459000.5",
        "eccentricity": ".1759168958510184",
        "semi_major_axis": "1.561158177828312",
        "inclination": "20.44636740734118",
        "ascending_node_longitude": "341.8633790522064",
        "orbital_period": "712.4736209804116",
        "perihelion_distance": "1.286524077252323",
        "perihelion_argument": "102.5378935296183",
        "aphelion_distance": "1.835792278404301",
        "perihelion_time": "2458769.295687889948",
        "mean_anomaly": "116.8233460280029",
        "mean_motion": ".5052818650388989",
        "equinox": "J2000",
        "orbit_class": {
            "orbit_class_type": "AMO",
            "orbit_class_description": "Near-Earth asteroid orbits similar to that of 1221 Amor",
            "orbit_class_range": "1.017 AU < q (perihelion) < 1.3 AU"
        }
    },
    "is_sentry_object": false
}